[{"OBJECT_NAME":"STARLINK-31414","OBJECT_ID":"2024-064W","EPOCH":"2026-03-09T00:38:48.543072","MEAN_MOTION":15.27569089,"ECCENTRICITY":0.00011966,"INCLINATION":43.0051,"RA_OF_ASC_NODE":59.98,"ARG_OF_PERICENTER":262.9326,"MEAN_ANOMALY":97.1389,"EPHEMERIS_TYPE":0,"CLASSIFICATION_TYPE":"U","NORAD_CAT_ID":59418,"ELEMENT_SET_NO":999,"REV_AT_EPOCH":10912,"BSTAR":-5.0833461e-5,"MEAN_MOTION_DOT":-1.66e-5,"MEAN_MOTION_DDOT":0},{"OBJECT_NAME":"COSMOS 1862","OBJECT_ID":"1987-055A","EPOCH":"2026-03-09T22:37:02.390592","MEAN_MOTION":15.30492139,"ECCENTRICITY":0.00097484,"INCLINATION":82.4856,"RA_OF_ASC_NODE":47.1862,"ARG_OF_PERICENTER":26.6325,"MEAN_ANOMALY":333.5414,"EPHEMERIS_TYPE":0,"CLASSIFICATION_TYPE":"U","NORAD_CAT_ID":18152,"ELEMENT_SET_NO":999,"REV_AT_EPOCH":8987,"BSTAR":0.00034125048,"MEAN_MOTION_DOT":0.00010107,"MEAN_MOTION_DDOT":0}]
